ALSAT-3A                
1 67474U 26009A   26044.77048642  .00006318  00000+0  26694-3 0  9996
2 67474  97.4676 119.4053 0012902 152.9770 207.2141 15.23525086  4487
CZ-2C R/B               
1 67475U 26009B   26044.90422412  .00002585  00000+0  17537-3 0  9991
2 67475  97.1734 117.2036 0100343 120.9114 240.2025 15.03160037  4501
TIANQI-37               
1 67476U 26010A   26039.27753693  .00000165  00000+0  15719-3 0  9998
2 67476  44.9825 296.6529 0012909  70.2546 289.9683 14.13528441  3324
TIANQI-38               
1 67477U 26010B   26039.27310946  .00000208  00000+0  17865-3 0  9991
2 67477  44.9788 296.6199 0011754  75.6443 284.5700 14.13905796  3321
TIANQI-39               
1 67478U 26010C   26039.42000177  .00000151  00000+0  15132-3 0  9993
2 67478  44.9839 296.0175 0016488  83.0314 277.2399 14.13055230  3340
TIANQI-40               
1 67479U 26010D   26040.19213046  .00000156  00000+0  15351-3 0  9999
2 67479  44.9786 292.4342 0011741  80.4003 279.8161 14.13182235  3454
SZ-20 MODULE            
1 67481U 25082C   26044.29255673  .00024261  00000+0  26471-3 0  9995
2 67481  41.4801 356.0296 0007578 171.4719 188.6251 15.62764588273807
2025-313BE              
1 67482U 25313BE  26044.72546913  .00057653  00000+0  22230-2 0  9990
2 67482  97.4062 121.5511 0008409  72.6295 287.5863 15.26073101  4318
ION SCV-021             
1 67483U 25276DT  26034.18647169 -.00137880  00000+0 -12184-1 0  9992
2 67483  97.5347 109.4970 0011364 207.9438 152.1175 14.97059561  2554
STARLINK-36551          
1 67493U 26012A   26044.91668981 -.01877207  00000+0 -52557-1 0  9992
2 67493  43.0006  89.1785 0000895 295.0182 299.6068 15.39259757  5256
STARLINK-36396          
1 67494U 26012B   26043.50669403  .00091001  00000+0  15335-2 0  9998
2 67494  43.0004  98.1000 0001112 358.6780   1.4077 15.50679657  3893
STARLINK-36550          
1 67495U 26012C   26044.17864642  .00069826  00000+0  11860-2 0  9994
2 67495  43.0016  93.6684 0002737 258.5376 101.5177 15.50564110  4002
